[{"OBJECT_NAME":"GAOFEN-11 05","OBJECT_ID":"2024-130A","EPOCH":"2026-03-09T22:37:47.360064","MEAN_MOTION":15.23784242,"ECCENTRICITY":0.00077059,"INCLINATION":97.4051,"RA_OF_ASC_NODE":148.5891,"ARG_OF_PERICENTER":100.8064,"MEAN_ANOMALY":259.4041,"EPHEMERIS_TYPE":0,"CLASSIFICATION_TYPE":"U","NORAD_CAT_ID":60249,"ELEMENT_SET_NO":999,"REV_AT_EPOCH":7035,"BSTAR":0.00034401659,"MEAN_MOTION_DOT":8.217e-5,"MEAN_MOTION_DDOT":0},{"OBJECT_NAME":"GAOFEN-14 02","OBJECT_ID":"2025-242A","EPOCH":"2026-03-09T22:45:15.300864","MEAN_MOTION":15.2569294,"ECCENTRICITY":9.85e-5,"INCLINATION":97.4192,"RA_OF_ASC_NODE":145.3638,"ARG_OF_PERICENTER":335.9045,"MEAN_ANOMALY":24.2147,"EPHEMERIS_TYPE":0,"CLASSIFICATION_TYPE":"U","NORAD_CAT_ID":66175,"ELEMENT_SET_NO":999,"REV_AT_EPOCH":2056,"BSTAR":0.00036713829,"MEAN_MOTION_DOT":9.284e-5,"MEAN_MOTION_DDOT":0}]
